# Download SYNOP messages from Ogimet

Download SYNOP messages from Ogimet

## Usage

``` r
download_from_ogimet(wmo_identifier, initial_date, final_date)
```

## Arguments

- wmo_identifier:

  A 5-digit character string or integer representing the station WMO ID.

- initial_date:

  Initial date, format "YYYY-MM-DD".

- final_date:

  Final date, format "YYYY-MM-DD".

## Value

A character vector with SYNOP strings.

## Details

The requested period cannot exceed 370 days. All queries assume UTC time
zone. The returned dataset covers from 00:00 UTC of the `initial_date`
to 23:00 UTC of the `final_date`, inclusive.

If the station identifier starts with 0 (zero), then `wmo_identifier`
must be a string (e.g., "06447")

## Examples

``` r
# \donttest{
download_from_ogimet(wmo_identifier = 87585, initial_date = "2024-01-10", final_date = "2024-01-11")
#>  [1] "87585,2024,01,10,00,00,AAXX 10004 87585 12960 00501 10284 20206 30062 40090 52011 60001 333 10335 20283="                              
#>  [2] "87585,2024,01,10,01,00,AAXX 10014 87585 42960 30502 10277 20213 30066 40096 52012 83030 333 56060 83360="                              
#>  [3] "87585,2024,01,10,02,00,AAXX 10024 87585 42960 00502 10276 20220 30070 40099 52015="                                                    
#>  [4] "87585,2024,01,10,03,00,AAXX 10034 87585 42960 00903 10272 20230 30073 40101 50011="                                                    
#>  [5] "87585,2024,01,10,04,00,AAXX 10044 87585 42960 00902 10264 20226 30069 40097 50003="                                                    
#>  [6] "87585,2024,01,10,05,00,AAXX 10054 87585 42960 21403 10256 20221 30068 40096 57003 82050 333 56060 82360="                              
#>  [7] "87585,2024,01,10,06,00,AAXX 10064 87585 12960 11401 10250 20217 30062 40090 57011 60001 81034 333 56066 81360="                        
#>  [8] "87585,2024,01,10,07,00,AAXX 10074 87585 42960 01403 10243 20195 30064 40093 55005="                                                    
#>  [9] "87585,2024,01,10,08,00,AAXX 10084 87585 42960 01404 10237 20179 30062 40091 55005="                                                    
#> [10] "87585,2024,01,10,09,00,AAXX 10094 87585 42960 51405 10238 20185 30068 40097 52005 85074 333 56066 85360="                              
#> [11] "87585,2024,01,10,10,00,AAXX 10104 87585 42560 71407 10241 20203 30070 40100 52007 82576 333 56266 82625 87270="                        
#> [12] "87585,2024,01,10,11,00,AAXX 10114 87585 42460 50506 10254 20212 30073 40102 52011 82680 333 56260 82716 85360="                        
#> [13] "87585,2024,01,10,12,00,AAXX 10124 87585 32560 50906 10270 20215 30072 40101 50004 82530 333 10284 20232 56260 82620 85360="            
#> [14] "87585,2024,01,10,13,00,AAXX 10134 87585 42560 41408 10284 20220 30074 40103 53004 82530 333 56260 82620 84360="                        
#> [15] "87585,2024,01,10,14,00,AAXX 10144 87585 42560 40907 10293 20215 30077 40106 52004 81536 333 56266 81625 83270="                        
#> [16] "87585,2024,01,10,15,00,AAXX 10154 87585 42560 53603 10310 20210 30078 40106 52007 81576 333 56266 81625 83360="                        
#> [17] "87585,2024,01,10,16,00,AAXX 10164 87585 42960 43604 10314 20192 30076 40104 50001 81034 333 56066 81360 84070="                        
#> [18] "87585,2024,01,10,17,00,AAXX 10174 87585 42560 50504 10322 20181 30070 40099 58007 81104 333 56706 81830 85070="                        
#> [19] "87585,2024,01,10,18,00,AAXX 10184 87585 12560 33603 10326 20187 30070 40098 57008 60001 81206 333 56706 57882 81830 83270="            
#> [20] "87585,2024,01,10,19,00,AAXX 10194 87585 42560 30706 10321 20189 30064 40093 57012 82204 333 56706 57882 82833 83070="                  
#> [21] "87585,2024,01,10,20,00,AAXX 10204 87585 42560 33608 10312 20219 30058 40087 57012 81504 333 56706 81630 83070="                        
#> [22] "87585,2024,01,10,21,00,AAXX 10214 87585 41560 51104 10286 20222 30053 40082 57017 71791 84970 333 56660 57950 84620 81945 85360="      
#> [23] "87585,2024,01,10,22,00,AAXX 10224 87585 41457 80000 10238 20216 30072 40101 53008 79592 8592/ 333 56269 57970 85715 81945 88560="      
#> [24] "87585,2024,01,10,23,00,AAXX 10234 87585 41460 61403 10240 20222 30069 40098 50011 72996 84270 333 56360 57800 84815 84360="            
#> [25] "87585,2024,01,11,00,00,AAXX 11004 87585 11460 60000 10238 20222 30068 40097 50015 60081 70296 82570 333 10328 20238 56360 82615 85360="
#> [26] "87585,2024,01,11,01,00,AAXX 11014 87585 42460 60000 10239 20223 30076 40105 53004 82570 333 56360 82615 85360="                        
#> [27] "87585,2024,01,11,02,00,AAXX 11024 87585 42460 30503 10247 20219 30086 40115 53017 82501 333 56300 82615="                              
#> [28] "87585,2024,01,11,03,00,AAXX 11034 87585 42960 81402 10241 20213 30097 40126 52029 8807/ 333 56069 88360="                              
#> [29] "87585,2024,01,11,04,00,AAXX 11044 87585 42960 41402 10237 20218 30098 40127 52023 84070 333 56000 84360="                              
#> [30] "87585,2024,01,11,05,00,AAXX 11054 87585 42960 41803 10234 20216 30093 40122 50007 84070 333 56000 84360="                              
#> [31] "87585,2024,01,11,06,00,AAXX 11064 87585 12960 61407 10235 20214 30102 40131 53005 60001 86070 333 56000 86360="                        
#> [32] "87585,2024,01,11,07,00,AAXX 11074 87585 42960 61402 10230 20209 30096 40125 58003 86070 333 56000 86360="                              
#> [33] "87585,2024,01,11,08,00,AAXX 11084 87585 42960 61806 10228 20202 30098 40127 53005 86070 333 56000 86360="                              
#> [34] "87585,2024,01,11,09,00,AAXX 11094 87585 42460 41405 10217 20189 30106 40136 53004 81670 333 56300 81715 84360="                        
#> [35] "87585,2024,01,11,10,00,AAXX 11104 87585 42460 81408 10214 20186 30114 40143 52019 886// 333 56399 84715 84620="                        
#> [36] "87585,2024,01,11,11,00,AAXX 11114 87585 42460 51615 10213 20178 30126 40155 52028 84601 333 56306 84715="                              
#> [37] "87585,2024,01,11,12,00,AAXX 11124 87585 12560 31612 10215 20150 30136 40165 52029 60084 83600 333 10247 20207 30000 56300 83725="      
#> [38] "87585,2024,01,11,13,00,AAXX 11134 87585 42660 21607 10239 20159 30138 40167 52024 82501 333 56306 82635="                              
#> [39] "87585,2024,01,11,14,00,AAXX 11144 87585 42660 31105 10254 20162 30144 40172 52017 82531 333 56356 82635="                              
#> [40] "87585,2024,01,11,15,00,AAXX 11154 87585 42660 31407 10270 20172 30144 40173 52008 83100 333 56300 83835="                              
#> [41] "87585,2024,01,11,16,00,AAXX 11164 87585 42660 51104 10269 20169 30144 40172 50005 83185 333 56356 83835="                              
#> [42] "87585,2024,01,11,17,00,AAXX 11174 87585 42660 40704 10276 20180 30136 40165 58008 82135 333 56366 82835="                              
#> [43] "87585,2024,01,11,18,00,AAXX 11184 87585 12660 30706 10273 20178 30138 40167 55005 60001 82589 333 56356 82635="                        
#> [44] "87585,2024,01,11,19,00,AAXX 11194 87585 42660 30507 10266 20180 30138 40168 55005 81589 333 56356 81635="                              
#> [45] "87585,2024,01,11,20,00,AAXX 11204 87585 42560 40707 10258 20173 30136 40164 54000 81186 333 56356 81830 84270="                        
#> [46] "87585,2024,01,11,21,00,AAXX 11214 87585 42960 50506 10242 20163 30134 40163 57004 84054 333 56066 84360="                              
#> [47] "87585,2024,01,11,22,00,AAXX 11224 87585 42960 30507 10228 20152 30136 40165 55003 82034 333 56066 82360="                              
#> [48] "87585,2024,01,11,23,00,AAXX 11234 87585 42560 20709 10218 20148 30138 40167 52003 81530 333 56260 81625="                              
# }
```
